{
  "type": "FeatureCollection",
  "features": [
    {
      "type": "Feature",
      "properties": {
        "norad_id": 29922,
        "name": "FENGYUN 1C DEB",
        "group": "fengyun-1c-debris",
        "lat": 46.162912294628256,
        "lon": -124.05027424232316,
        "alt_km": 939.4625230148667,
        "timestamp": "2025-12-14T20:40:32.043942+00:00",
        "meta_object_name": "FENGYUN 1C DEB",
        "meta_object_id": "1999-025HU",
        "meta_epoch": "2025-12-14T02:52:34.779072",
        "meta_mean_motion": 13.98581309,
        "meta_eccentricity": 0.00931522,
        "meta_inclination": 99.1356,
        "meta_ra_of_asc_node": 45.5639,
        "meta_arg_of_pericenter": 3.2127,
        "meta_mean_anomaly": 356.9615,
        "meta_ephemeris_type": 0,
        "meta_classification_type": "U",
        "meta_norad_cat_id": 29922,
        "meta_element_set_no": 999,
        "meta_rev_at_epoch": 96460,
        "meta_bstar": 0.00010922269,
        "meta_mean_motion_dot": 1.18e-06,
        "meta_mean_motion_ddot": 0,
        "tle_line1": "1 29922U 99025HU  25348.11984698  .00000118  00000+0  10922-3 0  9993",
        "tle_line2": "2 29922  99.1356  45.5639 0093152   3.2127 356.9615 13.98581309964603"
      },
      "geometry": {
        "type": "Point",
        "coordinates": [
          -124.05027424232316,
          46.162912294628256
        ]
      }
    },
    {
      "type": "Feature",
      "properties": {
        "norad_id": 29923,
        "name": "FENGYUN 1C DEB",
        "group": "fengyun-1c-debris",
        "lat": 81.30637945184067,
        "lon": -92.93757366055699,
        "alt_km": 834.9071913210691,
        "timestamp": "2025-12-14T20:40:32.043952+00:00",
        "meta_object_name": "FENGYUN 1C DEB",
        "meta_object_id": "1999-025HV",
        "meta_epoch": "2025-12-14T06:42:48.682368",
        "meta_mean_motion": 14.13895748,
        "meta_eccentricity": 0.00177048,
        "meta_inclination": 98.6882,
        "meta_ra_of_asc_node": 356.5284,
        "meta_arg_of_pericenter": 164.9624,
        "meta_mean_anomaly": 205.7638,
        "meta_ephemeris_type": 0,
        "meta_classification_type": "U",
        "meta_norad_cat_id": 29923,
        "meta_element_set_no": 999,
        "meta_rev_at_epoch": 97297,
        "meta_bstar": 0.00059284933,
        "meta_mean_motion_dot": 1.083e-05,
        "meta_mean_motion_ddot": 0,
        "tle_line1": "1 29923U 99025HV  25348.27973012  .00001083  00000+0  59285-3 0  9996",
        "tle_line2": "2 29923  98.6882 356.5284 0017704 164.9624 205.7638 14.13895748972977"
      },
      "geometry": {
        "type": "Point",
        "coordinates": [
          -92.93757366055699,
          81.30637945184067
        ]
      }
    },
    {
      "type": "Feature",
      "properties": {
        "norad_id": 29924,
        "name": "FENGYUN 1C DEB",
        "group": "fengyun-1c-debris",
        "lat": 26.029684202492284,
        "lon": -2.552653030929257,
        "alt_km": 875.4487059408548,
        "timestamp": "2025-12-14T20:40:32.043962+00:00",
        "meta_object_name": "FENGYUN 1C DEB",
        "meta_object_id": "1999-025HW",
        "meta_epoch": "2025-12-14T06:59:26.814048",
        "meta_mean_motion": 14.0889046,
        "meta_eccentricity": 0.00259344,
        "meta_inclination": 98.7343,
        "meta_ra_of_asc_node": 1.2006,
        "meta_arg_of_pericenter": 253.1138,
        "meta_mean_anomaly": 122.6912,
        "meta_ephemeris_type": 0,
        "meta_classification_type": "U",
        "meta_norad_cat_id": 29924,
        "meta_element_set_no": 999,
        "meta_rev_at_epoch": 97230,
        "meta_bstar": 4.3442884e-05,
        "meta_mean_motion_dot": 3.2e-07,
        "meta_mean_motion_ddot": 0,
        "tle_line1": "1 29924U 99025HW  25348.29128257  .00000032  00000+0  43443-4 0  9995",
        "tle_line2": "2 29924  98.7343   1.2006 0025934 253.1138 122.6912 14.08890460972301"
      },
      "geometry": {
        "type": "Point",
        "coordinates": [
          -2.552653030929257,
          26.029684202492284
        ]
      }
    },
    {
      "type": "Feature",
      "properties": {
        "norad_id": 29926,
        "name": "FENGYUN 1C DEB",
        "group": "fengyun-1c-debris",
        "lat": 78.88879884426062,
        "lon": -70.20946981982482,
        "alt_km": 923.6137727120376,
        "timestamp": "2025-12-14T20:40:32.043977+00:00",
        "meta_object_name": "FENGYUN 1C DEB",
        "meta_object_id": "1999-025HY",
        "meta_epoch": "2025-12-13T22:38:19.533696",
        "meta_mean_motion": 14.33398495,
        "meta_eccentricity": 0.02481658,
        "meta_inclination": 98.2834,
        "meta_ra_of_asc_node": 336.7942,
        "meta_arg_of_pericenter": 296.636,
        "meta_mean_anomaly": 89.0552,
        "meta_ephemeris_type": 0,
        "meta_classification_type": "U",
        "meta_norad_cat_id": 29926,
        "meta_element_set_no": 999,
        "meta_rev_at_epoch": 98598,
        "meta_bstar": 0.00049760427,
        "meta_mean_motion_dot": 1.884e-05,
        "meta_mean_motion_ddot": 0,
        "tle_line1": "1 29926U 99025HY  25347.94328164  .00001884  00000+0  49760-3 0  9990",
        "tle_line2": "2 29926  98.2834 336.7942 0248165 296.6360  89.0552 14.33398495985983"
      },
      "geometry": {
        "type": "Point",
        "coordinates": [
          -70.20946981982482,
          78.88879884426062
        ]
      }
    },
    {
      "type": "Feature",
      "properties": {
        "norad_id": 29927,
        "name": "FENGYUN 1C DEB",
        "group": "fengyun-1c-debris",
        "lat": 15.580034270245207,
        "lon": -164.37495678975824,
        "alt_km": 637.2862048110219,
        "timestamp": "2025-12-14T20:40:32.043988+00:00",
        "meta_object_name": "FENGYUN 1C DEB",
        "meta_object_id": "1999-025HZ",
        "meta_epoch": "2025-12-14T00:31:43.697856",
        "meta_mean_motion": 14.746379,
        "meta_eccentricity": 0.00178127,
        "meta_inclination": 99.0856,
        "meta_ra_of_asc_node": 12.127,
        "meta_arg_of_pericenter": 206.3383,
        "meta_mean_anomaly": 184.0763,
        "meta_ephemeris_type": 0,
        "meta_classification_type": "U",
        "meta_norad_cat_id": 29927,
        "meta_element_set_no": 999,
        "meta_rev_at_epoch": 98666,
        "meta_bstar": 0.0031345909,
        "meta_mean_motion_dot": 0.00020961,
        "meta_mean_motion_ddot": 0,
        "tle_line1": "1 29927U 99025HZ  25348.02203354  .00020961  00000+0  31346-2 0  9991",
        "tle_line2": "2 29927  99.0856  12.1270 0017812 206.3383 184.0763 14.74637900986660"
      },
      "geometry": {
        "type": "Point",
        "coordinates": [
          -164.37495678975824,
          15.580034270245207
        ]
      }
    },
    {
      "type": "Feature",
      "properties": {
        "norad_id": 29928,
        "name": "FENGYUN 1C DEB",
        "group": "fengyun-1c-debris",
        "lat": -26.083280445221842,
        "lon": 17.92930757501688,
        "alt_km": 998.2395431604991,
        "timestamp": "2025-12-14T20:40:32.043998+00:00",
        "meta_object_name": "FENGYUN 1C DEB",
        "meta_object_id": "1999-025JA",
        "meta_epoch": "2025-12-14T00:20:08.356704",
        "meta_mean_motion": 13.88086755,
        "meta_eccentricity": 0.01433721,
        "meta_inclination": 99.5849,
        "meta_ra_of_asc_node": 12.3145,
        "meta_arg_of_pericenter": 99.7148,
        "meta_mean_anomaly": 322.5004,
        "meta_ephemeris_type": 0,
        "meta_classification_type": "U",
        "meta_norad_cat_id": 29928,
        "meta_element_set_no": 999,
        "meta_rev_at_epoch": 95509,
        "meta_bstar": 0.000796683,
        "meta_mean_motion_dot": 9.85e-06,
        "meta_mean_motion_ddot": 0,
        "tle_line1": "1 29928U 99025JA  25348.01398561  .00000985  00000+0  79668-3 0  9990",
        "tle_line2": "2 29928  99.5849  12.3145 0143372  99.7148 322.5004 13.88086755955095"
      },
      "geometry": {
        "type": "Point",
        "coordinates": [
          17.92930757501688,
          -26.083280445221842
        ]
      }
    },
    {
      "type": "Feature",
      "properties": {
        "norad_id": 29929,
        "name": "FENGYUN 1C DEB",
        "group": "fengyun-1c-debris",
        "lat": -58.393245261814876,
        "lon": -77.73357423651755,
        "alt_km": 957.1102138789511,
        "timestamp": "2025-12-14T20:40:32.044008+00:00",
        "meta_object_name": "FENGYUN 1C DEB",
        "meta_object_id": "1999-025JB",
        "meta_epoch": "2025-12-14T00:28:54.401376",
        "meta_mean_motion": 14.01365786,
        "meta_eccentricity": 0.01312419,
        "meta_inclination": 98.6236,
        "meta_ra_of_asc_node": 267.1945,
        "meta_arg_of_pericenter": 172.631,
        "meta_mean_anomaly": 204.3221,
        "meta_ephemeris_type": 0,
        "meta_classification_type": "U",
        "meta_norad_cat_id": 29929,
        "meta_element_set_no": 999,
        "meta_rev_at_epoch": 95974,
        "meta_bstar": 0.001178762,
        "meta_mean_motion_dot": 1.875e-05,
        "meta_mean_motion_ddot": 0,
        "tle_line1": "1 29929U 99025JB  25348.02007409  .00001875  00000+0  11788-2 0  9997",
        "tle_line2": "2 29929  98.6236 267.1945 0131241 172.6310 204.3221 14.01365786959742"
      },
      "geometry": {
        "type": "Point",
        "coordinates": [
          -77.73357423651755,
          -58.393245261814876
        ]
      }
    }
  ]
}